[{"OBJECT_NAME":"STARLINK-3831","OBJECT_ID":"2022-045B","EPOCH":"2026-03-09T15:49:42.594528","MEAN_MOTION":15.08850162,"ECCENTRICITY":0.00016682,"INCLINATION":53.217,"RA_OF_ASC_NODE":209.2672,"ARG_OF_PERICENTER":97.0359,"MEAN_ANOMALY":263.0823,"EPHEMERIS_TYPE":0,"CLASSIFICATION_TYPE":"U","NORAD_CAT_ID":52332,"ELEMENT_SET_NO":999,"REV_AT_EPOCH":21563,"BSTAR":0.00014982702,"MEAN_MOTION_DOT":2.098e-5,"MEAN_MOTION_DDOT":0},{"OBJECT_NAME":"FENGYUN 1C DEB","OBJECT_ID":"1999-025AKL","EPOCH":"2026-03-09T14:47:46.011264","MEAN_MOTION":14.88806868,"ECCENTRICITY":0.0088849,"INCLINATION":98.9015,"RA_OF_ASC_NODE":300.2677,"ARG_OF_PERICENTER":245.5096,"MEAN_ANOMALY":169.9787,"EPHEMERIS_TYPE":0,"CLASSIFICATION_TYPE":"U","NORAD_CAT_ID":30546,"ELEMENT_SET_NO":999,"REV_AT_EPOCH":1749,"BSTAR":0.00087367,"MEAN_MOTION_DOT":8.737e-5,"MEAN_MOTION_DDOT":0}]
